ONEWEB-0196             
1 48218U 21031J   26169.58716966 -.00000106  00000+0 -32023-3 0  9993
2 48218  87.8966 289.4276 0002040 104.4952 255.6405 13.14503561248413
ONEWEB-0183             
1 48219U 21031K   26169.79015273  .00000187  00000+0  46871-3 0  9993
2 48219  87.8966 289.3854 0002051  95.9029 264.2335 13.14503218248536
ONEWEB-0185             
1 48220U 21031L   26169.58795534 -.00000130  00000+0 -38567-3 0  9990
2 48220  87.8974 289.4192 0002354 100.2807 259.8588 13.14502953248437
ONEWEB-0187             
1 48221U 21031M   26169.56798704 -.00001813  00000+0 -49263-2 0  9994
2 48221  87.8962 289.4386 0002165 103.3267 256.8104 13.14511193248442
ONEWEB-0192             
1 48222U 21031N   26169.76635844  .00000072  00000+0  15862-3 0  9995
2 48222  87.8965 289.3895 0001927 104.6984 255.4359 13.14501880248387
ONEWEB-0219             
1 48223U 21031P   26169.74573022 -.00000192  00000+0 -55327-3 0  9998
2 48223  87.8968 289.3858 0002173 103.1036 257.0336 13.14501556248581
ONEWEB-0202             
1 48224U 21031Q   26169.72672463 -.00000019  00000+0 -86858-4 0  9998
2 48224  87.8969 289.4018 0001909 121.4420 238.6896 13.14502480248569
ONEWEB-0204             
1 48225U 21031R   26169.76080251  .00000979  00000+0  26053-2 0  9993
2 48225  87.8970 289.3896 0002085  93.3286 266.8082 13.14512892248465
ONEWEB-0205             
1 48226U 21031S   26169.58398161 -.00000090  00000+0 -27786-3 0  9997
2 48226  87.8974 289.4179 0002203 105.6735 254.4638 13.14501610248458
ONEWEB-0206             
1 48227U 21031T   26169.78539063  .00000246  00000+0  62970-3 0  9993
2 48227  87.8972 289.3795 0001786  97.2880 262.8453 13.14503859248435
ONEWEB-0182             
1 48228U 21031U   26169.78063882  .00000290  00000+0  74735-3 0  9996
2 48228  87.8967 289.3881 0002047  94.9913 265.1450 13.14503145248642
ONEWEB-0186             
1 48229U 21031V   26169.71561963  .00000171  00000+0  42685-3 0  9990
2 48229  87.8978 289.3917 0002025 102.5341 257.6015 13.14502320248582
ONEWEB-0181             
1 48230U 21031W   26169.76953757  .00000126  00000+0  30644-3 0  9995
2 48230  87.8956 289.4100 0002016 105.9749 254.1603 13.14503084248442
ONEWEB-0188             
1 48231U 21031X   26169.73146932 -.00000095  00000+0 -29094-3 0  9996
2 48231  87.8959 289.4168 0001987 100.9610 259.1743 13.14503794248345
ONEWEB-0220             
1 48232U 21031Y   26169.77111279  .00000136  00000+0  33263-3 0  9994
2 48232  87.8973 289.3822 0002259 103.3329 256.8053 13.14502513248611
ONEWEB-0165             
1 48233U 21031Z   26169.72354757 -.00000003  00000+0 -41256-4 0  9997
2 48233  87.8969 289.4044 0001997 111.8458 248.2885 13.14501552248563
ONEWEB-0199             
1 48234U 21031AA  26169.78380755  .00000269  00000+0  69221-3 0  9994
2 48234  87.8974 289.3785 0001811  95.9827 264.1509 13.14503686248478
ONEWEB-0203             
1 48235U 21031AB  26169.77429830  .00000200  00000+0  50377-3 0  9999
2 48235  87.8974 289.3837 0001798 103.7388 256.3942 13.14502859248487
ONEWEB-0197             
1 48236U 21031AC  26169.74877491 -.00000199  00000+0 -57174-3 0  9998
2 48236  87.8963 289.3747 0002189  97.0310 263.1068 13.14504206248394
ONEWEB-0194             
1 48237U 21031AD  26169.72830722 -.00000018  00000+0 -82813-4 0  9992
2 48237  87.8969 289.4010 0001688  98.7177 261.4144 13.14502137248563
ONEWEB-0193             
1 48238U 21031AE  26169.74415888 -.00000208  00000+0 -59678-3 0  9990
2 48238  87.8969 289.3886 0001519  95.2808 264.8495 13.14502916248516
ONEWEB-0191             
1 48239U 21031AF  26169.75526515 -.00000100  00000+0 -30488-3 0  9991
2 48239  87.8974 289.3851 0002049  96.6090 263.5273 13.14503426248373
ONEWEB-0195             
1 48240U 21031AG  26169.73226465 -.00000111  00000+0 -33511-3 0  9994
2 48240  87.8973 289.3900 0002084 111.2761 248.8592 13.14501467248358
ONEWEB-0201             
1 48241U 21031AH  26169.72049855  .00000053  00000+0  10892-3 0  9990
2 48241  87.8965 289.4083 0002224  97.5283 262.6100 13.14504193248587
ONEWEB-0207             
1 48242U 21031AJ  26169.77667199  .00000276  00000+0  71113-3 0  9993
2 48242  87.8972 289.3821 0002198  98.1515 261.9864 13.14503591248502
ONEWEB-0208             
1 48243U 21031AK  26169.75843337 -.00000050  00000+0 -16831-3 0  9990
2 48243  87.8969 289.3922 0002019 111.4581 248.6764 13.14503883248511
ONEWEB-0200             
1 48244U 21031AL  26169.72195933  .00000064  00000+0  13822-3 0  9990
2 48244  87.8977 289.3863 0002000 102.9711 257.1642 13.14502553248439
ONEWEB-0217             
1 48245U 21031AM  26169.73780440  .00000277  00000+0  71307-3 0  9993
2 48245  87.8975 289.3876 0002002 112.0222 248.1120 13.14499108248389
ONEWEB-0211             
1 48767U 21045A   26169.78735948  .00000215  00000+0  53191-3 0  9998
2 48767  87.9009 258.7624 0001891 122.1072 238.0243 13.16196104244650
ONEWEB-0223             
1 48768U 21045B   26169.71442146  .00000081  00000+0  18015-3 0  9994
2 48768  87.9012 258.8859 0001737 112.1098 248.0217 13.15549845244602
